NORAD_CAT_ID,OBJECT_NAME,OBJECT_TYPE,EPOCH,MEAN_MOTION,ECCENTRICITY,INCLINATION,RA_OF_ASC_NODE,ARG_OF_PERICENTER,MEAN_ANOMALY,BSTAR,MEAN_MOTION_DOT,MEAN_MOTION_DDOT,TLE_LINE0,TLE_LINE1,TLE_LINE2,SEMIMAJOR_AXIS,PERIOD,APOGEE,PERIGEE,DECAYED
55748.0,STARLINK-5580,PAYLOAD,2023-11-12 22:26:05,14.98324141,0.0002157,69.9999,221.987,266.4705,93.6207,0.00022619,2.606e-05,0.0,0 STARLINK-5580,1 55748U 23028H   23316.93478795  .00002606  00000-0  22619-3 0  9998,2 55748  69.9999 221.9870 0002157 266.4705  93.6207 14.98324141 39057,6950.211,96.107,573.575,570.577,0.0
55748.0,STARLINK-5580,PAYLOAD,2023-11-13 03:14:29,14.9833681,0.0002375,70.0002,221.4825,265.6997,94.389,0.0001403,1.582e-05,0.0,0 STARLINK-5580,1 55748U 23028H   23317.13505964  .00001582  00000-0  14030-3 0  9990,2 55748  70.0002 221.4825 0002375 265.6997  94.3890 14.98336810 39081,6950.172,96.107,573.687,570.386,0.0
55748.0,STARLINK-5580,PAYLOAD,2023-11-13 11:15:09,14.98331092,0.0002315,70.0015,220.6401,272.842,87.2474,7.2846e-05,7.76e-06,0.0,0 STARLINK-5580,1 55748U 23028H   23317.46886479  .00000776  00000-0  72846-4 0  9993,2 55748  70.0015 220.6401 0002315 272.8420  87.2474 14.98331092 39133,6950.19,96.107,573.663,570.446,0.0
55748.0,STARLINK-5580,PAYLOAD,2023-11-14 03:16:29,14.98346219,0.0002518,70.0005,218.9577,267.8719,92.2152,0.00023475,2.71e-05,0.0,0 STARLINK-5580,1 55748U 23028H   23318.13644692  .00002710  00000-0  23475-3 0  9990,2 55748  70.0005 218.9577 0002518 267.8719  92.2152 14.98346219 39233,6950.143,96.106,573.758,570.258,0.0
55748.0,STARLINK-5580,PAYLOAD,2023-11-15 03:18:31,14.98320864,0.0002304,70.0009,216.4325,256.4236,103.6666,-6.9944e-05,-9.27e-06,0.0,0 STARLINK-5580,1 55748U 23028H   23319.13786894 -.00000927  00000-0 -69944-4 0  9994,2 55748  70.0009 216.4325 0002304 256.4236 103.6666 14.98320864 39383,6950.221,96.108,573.687,570.485,0.0
55748.0,STARLINK-5580,PAYLOAD,2023-11-16 03:20:31,14.98335973,0.0002705,70.0002,213.9068,270.7939,89.291,-0.00011716,-1.491e-05,0.0,0 STARLINK-5580,1 55748U 23028H   23320.13925813 -.00001491  00000-0 -11716-3 0  9992,2 55748  70.0002 213.9068 0002705 270.7939  89.2910 14.98335973 39531,6950.174,96.107,573.919,570.159,0.0
55748.0,STARLINK-5580,PAYLOAD,2023-11-16 16:09:36,14.98296402,0.0002294,70.0003,212.5603,271.5759,88.5137,0.00059753,7.037e-05,0.0,0 STARLINK-5580,1 55748U 23028H   23320.67333895  .00007037  00000-0  59753-3 0  9997,2 55748  70.0003 212.5603 0002294 271.5759  88.5137 14.98296402 39619,6950.297,96.109,573.756,570.567,0.0
55748.0,STARLINK-5580,PAYLOAD,2023-11-17 03:22:33,14.98293051,0.0002255,70.0,211.3825,270.2993,89.7908,0.00073969,8.735e-05,0.0,0 STARLINK-5580,1 55748U 23028H   23321.14066580  .00008735  00000-0  73969-3 0  9995,2 55748  70.0000 211.3825 0002255 270.2993  89.7908 14.98293051 39685,6950.307,96.109,573.739,570.605,0.0
55748.0,STARLINK-5580,PAYLOAD,2023-11-17 16:11:37,14.98329004,0.000259,69.9998,210.0367,264.8716,95.2147,4.0606e-05,3.92e-06,0.0,0 STARLINK-5580,1 55748U 23028H   23321.67474201  .00000392  00000-0  40606-4 0  9990,2 55748  69.9998 210.0367 0002590 264.8716  95.2147 14.98329004 39763,6950.196,96.107,573.861,570.261,0.0
55748.0,STARLINK-5580,PAYLOAD,2023-11-17 22:36:10,14.98311365,0.0001145,70.0049,209.3626,241.3215,118.7829,0.00011682,1.301e-05,0.0,0 STARLINK-5580,1 55748U 23028H   23321.94179150  .00001301  00000-0  11682-3 0  9997,2 55748  70.0049 209.3626 0001145 241.3215 118.7829 14.98311365 39805,6950.251,96.108,572.911,571.32,0.0
55748.0,STARLINK-5580,PAYLOAD,2023-11-18 01:48:26,14.98323156,0.0002026,70.0016,209.0261,286.0665,74.0271,5.3432e-05,5.45e-06,0.0,0 STARLINK-5580,1 55748U 23028H   23322.07530774  .00000545  00000-0  53432-4 0  9994,2 55748  70.0016 209.0261 0002026 286.0665  74.0271 14.98323156 39823,6950.214,96.107,573.487,570.671,0.0
55748.0,STARLINK-5580,PAYLOAD,2023-11-18 09:49:06,14.98328778,0.0002418,70.0013,208.1845,271.7578,88.3304,3.7504e-05,3.55e-06,0.0,0 STARLINK-5580,1 55748U 23028H   23322.40910371  .00000355  00000-0  37504-4 0  9997,2 55748  70.0013 208.1845 0002418 271.7578  88.3304 14.98328778 39872,6950.197,96.107,573.742,570.381,0.0
55748.0,STARLINK-5580,PAYLOAD,2023-11-19 01:50:27,14.98326622,0.000202,70.0014,206.5018,279.6169,80.4762,3.9742e-05,3.81e-06,0.0,0 STARLINK-5580,1 55748U 23028H   23323.07670530  .00000381  00000-0  39742-4 0  9996,2 55748  70.0014 206.5018 0002020 279.6169  80.4762 14.98326622 39977,6950.203,96.107,573.472,570.664,0.0
55748.0,STARLINK-5580,PAYLOAD,2023-11-19 19:27:55,14.98332001,0.0002454,69.9998,204.6511,266.6537,93.4341,0.00011181,1.241e-05,0.0,0 STARLINK-5580,1 55748U 23028H   23323.81105761  .00001241  00000-0  11181-3 0  9999,2 55748  69.9998 204.6511 0002454 266.6537  93.4341 14.98332001 40087,6950.187,96.107,573.757,570.346,0.0
55748.0,STARLINK-5580,PAYLOAD,2023-11-19 22:40:11,14.98333263,0.0002337,70.0001,204.3136,267.5012,92.5879,0.00010955,1.215e-05,0.0,0 STARLINK-5580,1 55748U 23028H   23323.94457657  .00001215  00000-0  10955-3 0  9996,2 55748  70.0001 204.3136 0002337 267.5012  92.5879 14.98333263 40103,6950.183,96.107,573.672,570.424,0.0
55748.0,STARLINK-5580,PAYLOAD,2023-11-20 09:53:07,14.98332827,0.0002715,69.9989,203.1346,270.3365,89.7483,4.9857e-05,5.02e-06,0.0,0 STARLINK-5580,1 55748U 23028H   23324.41189682  .00000502  00000-0  49857-4 0  9991,2 55748  69.9989 203.1346 0002715 270.3365  89.7483 14.98332827 40179,6950.184,96.107,573.936,570.162,0.0
55748.0,STARLINK-5580,PAYLOAD,2023-11-20 19:29:56,14.983316,0.0002697,69.999,202.1249,270.1095,89.9755,3.0739e-05,2.74e-06,0.0,0 STARLINK-5580,1 55748U 23028H   23324.81245776  .00000274  00000-0  30739-4 0  9997,2 55748  69.9990 202.1249 0002697 270.1095  89.9755 14.98331600 40238,6950.188,96.107,573.927,570.178,0.0
55748.0,STARLINK-5580,PAYLOAD,2023-11-20 22:42:12,14.98333113,0.0002709,69.9989,201.7887,270.8722,89.2126,4.4692e-05,4.4e-06,0.0,0 STARLINK-5580,1 55748U 23028H   23324.94597605  .00000440  00000-0  44692-4 0  9990,2 55748  69.9989 201.7887 0002709 270.8722  89.2126 14.98333113 40255,6950.183,96.107,573.931,570.165,0.0
55748.0,STARLINK-5580,PAYLOAD,2023-11-21 01:54:28,14.98334307,0.0002712,69.9989,201.4521,270.9716,89.1132,5.601e-05,5.75e-06,0.0,0 STARLINK-5580,1 55748U 23028H   23325.07949471  .00000575  00000-0  56010-4 0  9993,2 55748  69.9989 201.4521 0002712 270.9716  89.1132 14.98334307 40279,6950.18,96.107,573.929,570.16,0.0
55748.0,STARLINK-5580,PAYLOAD,2023-11-21 21:08:05,14.98332076,0.0002625,69.9989,199.4318,271.2988,88.787,5.9776e-06,-2.2e-07,0.0,0 STARLINK-5580,1 55748U 23028H   23325.88061762 -.00000022  00000-0  59776-5 0  9991,2 55748  69.9989 199.4318 0002625 271.2988  88.7870 14.98332076 40395,6950.186,96.107,573.876,570.227,0.0
55748.0,STARLINK-5580,PAYLOAD,2023-11-22 01:56:29,14.9833777,0.0002672,69.9987,198.9272,271.2033,88.882,5.8719e-05,6.08e-06,0.0,0 STARLINK-5580,1 55748U 23028H   23326.08089211  .00000608  00000-0  58719-4 0  9997,2 55748  69.9987 198.9272 0002672 271.2033  88.8820 14.98337770 40425,6950.169,96.107,573.891,570.177,0.0
55748.0,STARLINK-5580,PAYLOAD,2023-11-22 19:33:57,14.98334138,0.0002641,69.9992,197.0753,272.2502,87.8355,0.00011149,1.238e-05,0.0,0 STARLINK-5580,1 55748U 23028H   23326.81525148  .00001238  00000-0  11149-3 0  9997,2 55748  69.9992 197.0753 0002641 272.2502  87.8355 14.98334138 40532,6950.18,96.107,573.881,570.21,0.0
55748.0,STARLINK-5580,PAYLOAD,2023-11-23 01:58:29,14.98340552,0.0002517,69.9992,196.402,270.6285,89.4585,0.0001456,1.645e-05,0.0,0 STARLINK-5580,1 55748U 23028H   23327.08228622  .00001645  00000-0  14560-3 0  9996,2 55748  69.9992 196.4020 0002517 270.6285  89.4585 14.98340552 40578,6950.16,96.106,573.775,570.276,0.0
55748.0,STARLINK-5580,PAYLOAD,2023-11-23 19:35:59,14.98326198,0.0002134,69.9998,194.5511,239.6099,120.4849,-3.2397e-05,-4.79e-06,0.0,0 STARLINK-5580,1 55748U 23028H   23327.81665925 -.00000479  00000-0 -32397-4 0  9993,2 55748  69.9998 194.5511 0002134 239.6099 120.4849 14.98326198 40682,6950.205,96.107,573.553,570.586,0.0
55748.0,STARLINK-5580,PAYLOAD,2023-11-23 21:12:07,14.98323534,0.0002566,69.9986,194.3823,267.7266,92.36,-5.4404e-05,-7.42e-06,0.0,0 STARLINK-5580,1 55748U 23028H   23327.88342240 -.00000742  00000-0 -54404-4 0  9998,2 55748  69.9986 194.3823 0002566 267.7266  92.3600 14.98323534 40694,6950.213,96.107,573.861,570.294,0.0
55748.0,STARLINK-5580,PAYLOAD,2023-11-24 02:00:32,14.98323344,0.0002616,69.9985,193.8774,269.4991,90.5868,-6.7594e-05,-8.99e-06,0.0,0 STARLINK-5580,1 55748U 23028H   23328.08370389 -.00000899  00000-0 -67594-4 0  9993,2 55748  69.9985 193.8774 0002616 269.4991  90.5868 14.98323344 40721,6950.213,96.107,573.897,570.26,0.0
55748.0,STARLINK-5580,PAYLOAD,2023-11-24 19:38:00,14.98333088,0.0002795,69.9982,192.0256,272.4804,87.6035,-9.0224e-06,-2.01e-06,0.0,0 STARLINK-5580,1 55748U 23028H   23328.81805873 -.00000201  00000-0 -90224-5 0  9999,2 55748  69.9982 192.0256 0002795 272.4804  87.6035 14.98333088 40830,6950.183,96.107,573.991,570.106,0.0
55748.0,STARLINK-5580,PAYLOAD,2023-11-24 21:14:08,14.98332957,0.0002762,69.9982,191.8572,270.7982,89.2861,-4.9636e-06,-1.52e-06,0.0,0 STARLINK-5580,1 55748U 23028H   23328.88481870 -.00000152  00000-0 -49636-5 0  9999,2 55748  69.9982 191.8572 0002762 270.7982  89.2861 14.98332957 40840,6950.184,96.107,573.968,570.129,0.0
55748.0,STARLINK-5580,PAYLOAD,2023-11-25 00:26:24,14.9833672,0.0002592,69.9983,191.5201,270.0202,90.066,4.491e-05,4.43e-06,0.0,0 STARLINK-5580,1 55748U 23028H   23329.01833485  .00000443  00000-0  44910-4 0  9998,2 55748  69.9983 191.5201 0002592 270.0202  90.0660 14.98336720 40867,6950.172,96.107,573.839,570.236,0.0
55748.0,STARLINK-5580,PAYLOAD,2023-11-25 21:16:08,14.98334889,0.0002176,69.9993,189.3333,257.1417,102.9499,0.00029538,3.434e-05,0.0,0 STARLINK-5580,1 55748U 23028H   23329.88621213  .00003434  00000-0  29538-3 0  9998,2 55748  69.9993 189.3333 0002176 257.1417 102.9499 14.98334889 40992,6950.178,96.107,573.555,570.53,0.0
